{"fetched_at":"2026-07-13T18:16:35.050Z","source":"https://celestrak.org/NORAD/elements/gp.php?GROUP=qianfan&FORMAT=JSON","constellation":"qianfan","records":[{"OBJECT_NAME":"QIANFAN-161","OBJECT_ID":"2026-108S","EPOCH":"2026-07-12T20:50:39.282144","CLASSIFICATION_TYPE":"U","MEAN_MOTION":13.76598087,"ECCENTRICITY":0.002027,"INCLINATION":89.0105,"RA_OF_ASC_NODE":19.4293,"ARG_OF_PERICENTER":23.3539,"MEAN_ANOMALY":336.8543,"EPHEMERIS_TYPE":0,"NORAD_CAT_ID":69120,"ELEMENT_SET_NO":999,"REV_AT_EPOCH":793,"BSTAR":-1.9941483,"MEAN_MOTION_DOT":-0.01819366,"MEAN_MOTION_DDOT":0},{"OBJECT_NAME":"QIANFAN-162","OBJECT_ID":"2026-108T","EPOCH":"2026-07-12T20:27:05.855040","CLASSIFICATION_TYPE":"U","MEAN_MOTION":13.70323855,"ECCENTRICITY":0.00198393,"INCLINATION":89.0096,"RA_OF_ASC_NODE":19.4437,"ARG_OF_PERICENTER":39.4385,"MEAN_ANOMALY":320.8217,"EPHEMERIS_TYPE":0,"NORAD_CAT_ID":69121,"ELEMENT_SET_NO":999,"REV_AT_EPOCH":791,"BSTAR":-2.3611088,"MEAN_MOTION_DOT":-0.01954308,"MEAN_MOTION_DDOT":0},{"OBJECT_NAME":"QIANFAN-163","OBJECT_ID":"2026-121A","EPOCH":"2026-07-08T23:20:22.023168","CLASSIFICATION_TYPE":"U","MEAN_MOTION":13.53894414,"ECCENTRICITY":0.00204807,"INCLINATION":89.0049,"RA_OF_ASC_NODE":298.3591,"ARG_OF_PERICENTER":118.563,"MEAN_ANOMALY":241.7588,"EPHEMERIS_TYPE":0,"NORAD_CAT_ID":69325,"ELEMENT_SET_NO":999,"REV_AT_EPOCH":511,"BSTAR":-0.000006639878,"MEAN_MOTION_DOT":8e-8,"MEAN_MOTION_DDOT":0},{"OBJECT_NAME":"QIANFAN-164","OBJECT_ID":"2026-121B","EPOCH":"2026-07-13T05:26:38.239008","CLASSIFICATION_TYPE":"U","MEAN_MOTION":13.49695513,"ECCENTRICITY":0.00228343,"INCLINATION":89.0183,"RA_OF_ASC_NODE":297.9165,"ARG_OF_PERICENTER":113.7865,"MEAN_ANOMALY":246.5683,"EPHEMERIS_TYPE":0,"NORAD_CAT_ID":69326,"ELEMENT_SET_NO":999,"REV_AT_EPOCH":568,"BSTAR":0.000078123416,"MEAN_MOTION_DOT":6.2e-7,"MEAN_MOTION_DDOT":0},{"OBJECT_NAME":"QIANFAN-165","OBJECT_ID":"2026-124A","EPOCH":"2026-07-12T20:15:28.817856","CLASSIFICATION_TYPE":"U","MEAN_MOTION":13.92331709,"ECCENTRICITY":0.00058995,"INCLINATION":88.9993,"RA_OF_ASC_NODE":359.1619,"ARG_OF_PERICENTER":80.5127,"MEAN_ANOMALY":279.6714,"EPHEMERIS_TYPE":0,"NORAD_CAT_ID":69382,"ELEMENT_SET_NO":999,"REV_AT_EPOCH":543,"BSTAR":-1.5937289,"MEAN_MOTION_DOT":-0.019114,"MEAN_MOTION_DDOT":0},{"OBJECT_NAME":"QIANFAN-166","OBJECT_ID":"2026-124B","EPOCH":"2026-07-12T19:31:38.459712","CLASSIFICATION_TYPE":"U","MEAN_MOTION":13.94547285,"ECCENTRICITY":0.00083725,"INCLINATION":88.9992,"RA_OF_ASC_NODE":359.1575,"ARG_OF_PERICENTER":96.315,"MEAN_ANOMALY":263.898,"EPHEMERIS_TYPE":0,"NORAD_CAT_ID":69383,"ELEMENT_SET_NO":999,"REV_AT_EPOCH":543,"BSTAR":-1.5349258,"MEAN_MOTION_DOT":-0.01913304,"MEAN_MOTION_DDOT":0},{"OBJECT_NAME":"QIANFAN-167","OBJECT_ID":"2026-124C","EPOCH":"2026-07-12T20:05:49.860960","CLASSIFICATION_TYPE":"U","MEAN_MOTION":13.92727458,"ECCENTRICITY":0.00088017,"INCLINATION":88.999,"RA_OF_ASC_NODE":359.1608,"ARG_OF_PERICENTER":89.2577,"MEAN_ANOMALY":270.9606,"EPHEMERIS_TYPE":0,"NORAD_CAT_ID":69384,"ELEMENT_SET_NO":999,"REV_AT_EPOCH":543,"BSTAR":-1.8156206,"MEAN_MOTION_DOT":-0.02172699,"MEAN_MOTION_DDOT":0},{"OBJECT_NAME":"QIANFAN-168","OBJECT_ID":"2026-124D","EPOCH":"2026-07-12T17:39:04.627872","CLASSIFICATION_TYPE":"U","MEAN_MOTION":13.9328097,"ECCENTRICITY":0.00082934,"INCLINATION":88.9993,"RA_OF_ASC_NODE":359.1633,"ARG_OF_PERICENTER":91.0255,"MEAN_ANOMALY":269.187,"EPHEMERIS_TYPE":0,"NORAD_CAT_ID":69385,"ELEMENT_SET_NO":999,"REV_AT_EPOCH":542,"BSTAR":-1.6184343,"MEAN_MOTION_DOT":-0.01969488,"MEAN_MOTION_DDOT":0},{"OBJECT_NAME":"QIANFAN-169","OBJECT_ID":"2026-124E","EPOCH":"2026-07-12T19:02:07.022976","CLASSIFICATION_TYPE":"U","MEAN_MOTION":13.9429742,"ECCENTRICITY":0.00098583,"INCLINATION":88.9989,"RA_OF_ASC_NODE":359.153,"ARG_OF_PERICENTER":97.714,"MEAN_ANOMALY":262.5155,"EPHEMERIS_TYPE":0,"NORAD_CAT_ID":69386,"ELEMENT_SET_NO":999,"REV_AT_EPOCH":543,"BSTAR":-1.5311063,"MEAN_MOTION_DOT":-0.01901274,"MEAN_MOTION_DDOT":0},{"OBJECT_NAME":"QIANFAN-170","OBJECT_ID":"2026-124F","EPOCH":"2026-07-12T18:31:39.441792","CLASSIFICATION_TYPE":"U","MEAN_MOTION":13.96092845,"ECCENTRICITY":0.00097538,"INCLINATION":88.9991,"RA_OF_ASC_NODE":359.1504,"ARG_OF_PERICENTER":93.8761,"MEAN_ANOMALY":266.3531,"EPHEMERIS_TYPE":0,"NORAD_CAT_ID":69387,"ELEMENT_SET_NO":999,"REV_AT_EPOCH":543,"BSTAR":-1.4759053,"MEAN_MOTION_DOT":-0.01891744,"MEAN_MOTION_DDOT":0},{"OBJECT_NAME":"QIANFAN-171","OBJECT_ID":"2026-124G","EPOCH":"2026-07-12T19:53:04.761312","CLASSIFICATION_TYPE":"U","MEAN_MOTION":13.96019834,"ECCENTRICITY":0.0009802,"INCLINATION":88.9989,"RA_OF_ASC_NODE":359.1405,"ARG_OF_PERICENTER":113.4121,"MEAN_ANOMALY":246.8087,"EPHEMERIS_TYPE":0,"NORAD_CAT_ID":69388,"ELEMENT_SET_NO":999,"REV_AT_EPOCH":544,"BSTAR":-1.4387846,"MEAN_MOTION_DOT":-0.01825081,"MEAN_MOTION_DDOT":0},{"OBJECT_NAME":"QIANFAN-172","OBJECT_ID":"2026-124H","EPOCH":"2026-07-12T19:57:29.261952","CLASSIFICATION_TYPE":"U","MEAN_MOTION":13.97319378,"ECCENTRICITY":0.00100187,"INCLINATION":88.999,"RA_OF_ASC_NODE":359.1417,"ARG_OF_PERICENTER":86.9405,"MEAN_ANOMALY":273.2919,"EPHEMERIS_TYPE":0,"NORAD_CAT_ID":69389,"ELEMENT_SET_NO":999,"REV_AT_EPOCH":544,"BSTAR":-1.5114474,"MEAN_MOTION_DOT":-0.01973676,"MEAN_MOTION_DDOT":0},{"OBJECT_NAME":"QIANFAN-173","OBJECT_ID":"2026-124J","EPOCH":"2026-07-12T19:34:45.215904","CLASSIFICATION_TYPE":"U","MEAN_MOTION":13.97347617,"ECCENTRICITY":0.00100862,"INCLINATION":88.9989,"RA_OF_ASC_NODE":359.1387,"ARG_OF_PERICENTER":91.5769,"MEAN_ANOMALY":268.6564,"EPHEMERIS_TYPE":0,"NORAD_CAT_ID":69390,"ELEMENT_SET_NO":999,"REV_AT_EPOCH":544,"BSTAR":-1.4801288,"MEAN_MOTION_DOT":-0.01936338,"MEAN_MOTION_DDOT":0},{"OBJECT_NAME":"QIANFAN-174","OBJECT_ID":"2026-124K","EPOCH":"2026-07-12T19:08:57.950016","CLASSIFICATION_TYPE":"U","MEAN_MOTION":14.01711143,"ECCENTRICITY":0.00054837,"INCLINATION":88.9985,"RA_OF_ASC_NODE":359.1361,"ARG_OF_PERICENTER":163.9561,"MEAN_ANOMALY":196.1793,"EPHEMERIS_TYPE":0,"NORAD_CAT_ID":69391,"ELEMENT_SET_NO":999,"REV_AT_EPOCH":543,"BSTAR":-1.574578,"MEAN_MOTION_DOT":-0.02202889,"MEAN_MOTION_DDOT":0},{"OBJECT_NAME":"QIANFAN-175","OBJECT_ID":"2026-124L","EPOCH":"2026-07-12T19:09:00.916128","CLASSIFICATION_TYPE":"U","MEAN_MOTION":13.97886597,"ECCENTRICITY":0.00106244,"INCLINATION":88.9993,"RA_OF_ASC_NODE":359.1353,"ARG_OF_PERICENTER":93.4195,"MEAN_ANOMALY":266.8198,"EPHEMERIS_TYPE":0,"NORAD_CAT_ID":69392,"ELEMENT_SET_NO":999,"REV_AT_EPOCH":544,"BSTAR":-1.4575508,"MEAN_MOTION_DOT":-0.01925776,"MEAN_MOTION_DDOT":0},{"OBJECT_NAME":"QIANFAN-176","OBJECT_ID":"2026-124M","EPOCH":"2026-07-12T19:04:32.229408","CLASSIFICATION_TYPE":"U","MEAN_MOTION":13.99602377,"ECCENTRICITY":0.0006778,"INCLINATION":88.9995,"RA_OF_ASC_NODE":359.1349,"ARG_OF_PERICENTER":73.8671,"MEAN_ANOMALY":286.3253,"EPHEMERIS_TYPE":0,"NORAD_CAT_ID":69393,"ELEMENT_SET_NO":999,"REV_AT_EPOCH":543,"BSTAR":-1.4895144,"MEAN_MOTION_DOT":-0.02020938,"MEAN_MOTION_DDOT":0}]}
